{
  "norad_id": 61545,
  "name": "STARLINK-32406",
  "history": [
    {
      "epoch": "2026-03-28T19:30:51.628320Z",
      "apogee_km": 476.0620606434577,
      "perigee_km": 474.39038828574576,
      "latitude_deg": -6.573139244461577e-05,
      "longitude_deg": 166.259071618123,
      "height_km": 475.9636376913898,
      "semi_major_axis_km": 6853.363224464601,
      "eccentricity": 0.00012196,
      "inclination_deg": 53.1593,
      "raan_deg": 285.2024,
      "arg_perigee_deg": 78.9153,
      "mean_anomaly_deg": 281.1984,
      "mean_motion_rev_day": 15.30196264
    }
  ]
}